{"type": "FeatureCollection", "features": [ {"type": "Feature", "properties": {"norad_id": 64902, "name": "CO3D 2", "group": "resource", "lat": -73.20638194130987, "lon": -137.34638170267408, "alt_km": 504.1552389243534, "timestamp": "2025-12-17T23:38:06.521174+00:00", "meta": {"OBJECT_NAME": "CO3D 2", "OBJECT_ID": "2025-156D", "EPOCH": "2025-12-12T21:01:26.694624", "MEAN_MOTION": 15.22031437, "ECCENTRICITY": 0.00203863, "INCLINATION": 97.4215, "RA_OF_ASC_NODE": 63.2016, "ARG_OF_PERICENTER": 351.3096, "MEAN_ANOMALY": 8.7784, "EPHEMERIS_TYPE": 0, "CLASSIFICATION_TYPE": "U", "NORAD_CAT_ID": 64902, "ELEMENT_SET_NO": 999, "REV_AT_EPOCH": 2122, "BSTAR": 0.00010503321, "MEAN_MOTION_DOT": 2.342e-05, "MEAN_MOTION_DDOT": 0}, "tle": {"line1": "1 64902U 25156D   25346.87600341  .00002342  00000+0  10503-3 0  9991", "line2": "2 64902  97.4215  63.2016 0020386 351.3096   8.7784 15.22031437 21224"}}, "geometry": {"type": "Point", "coordinates": [-137.34638170267408, -73.20638194130987]}}, {"type": "Feature", "properties": {"norad_id": 64903, "name": "CO3D 1", "group": "resource", "lat": -54.87901808242193, "lon": -123.23499874996801, "alt_km": 582.1006222001288, "timestamp": "2025-12-17T23:38:06.521184+00:00", "meta": {"OBJECT_NAME": "CO3D 1", "OBJECT_ID": "2025-156E", "EPOCH": "2025-12-17T11:36:30.873888", "MEAN_MOTION": 15.26220326, "ECCENTRICITY": 0.01994167, "INCLINATION": 97.9769, "RA_OF_ASC_NODE": 67.73, "ARG_OF_PERICENTER": 106.5315, "MEAN_ANOMALY": 255.7931, "EPHEMERIS_TYPE": 0, "CLASSIFICATION_TYPE": "U", "NORAD_CAT_ID": 64903, "ELEMENT_SET_NO": 999, "REV_AT_EPOCH": 2192, "BSTAR": 7.9752951e-05, "MEAN_MOTION_DOT": 3.599e-05, "MEAN_MOTION_DDOT": 0}, "tle": {"line1": "1 64903U 25156E   25351.48369067  .00003599  00000+0  79753-4 0  9990", "line2": "2 64903  97.9769  67.7300 0199416 106.5315 255.7931 15.26220326 21920"}}, "geometry": {"type": "Point", "coordinates": [-123.23499874996801, -54.87901808242193]}}, {"type": "Feature", "properties": {"norad_id": 66514, "name": "SENTINEL-6B", "group": "resource", "lat": 9.513978542657654, "lon": -32.73978147440782, "alt_km": 1336.9694096520443, "timestamp": "2025-12-17T23:38:06.521194+00:00", "meta": {"OBJECT_NAME": "SENTINEL-6B", "OBJECT_ID": "2025-264A", "EPOCH": "2025-12-12T06:01:21.430272", "MEAN_MOTION": 12.81479576, "ECCENTRICITY": 0.0007847, "INCLINATION": 66.0385, "RA_OF_ASC_NODE": 163.4531, "ARG_OF_PERICENTER": 270.1745, "MEAN_ANOMALY": 89.8371, "EPHEMERIS_TYPE": 0, "CLASSIFICATION_TYPE": "U", "NORAD_CAT_ID": 66514, "ELEMENT_SET_NO": 999, "REV_AT_EPOCH": 322, "BSTAR": 0.00018864317, "MEAN_MOTION_DOT": -1.7e-07, "MEAN_MOTION_DDOT": 0}, "tle": {"line1": "1 66514U 25264A   25346.25094248 -.00000017  00000+0  18864-3 0  9993", "line2": "2 66514  66.0385 163.4531 0007847 270.1745  89.8371 12.81479576  3220"}}, "geometry": {"type": "Point", "coordinates": [-32.73978147440782, 9.513978542657654]}}]}